{
  "type": "FeatureCollection",
  "features": [
    {
      "type": "Feature",
      "properties": {
        "norad_id": 35959,
        "name": "COSMOS 2251 DEB",
        "group": "cosmos-2251-debris",
        "lat": -40.572167737303175,
        "lon": 136.9631645189737,
        "alt_km": 798.6305188721972,
        "timestamp": "2025-12-17T19:34:08.434566+00:00",
        "meta_object_name": "COSMOS 2251 DEB",
        "meta_object_id": "1993-036AUZ",
        "meta_epoch": "2025-12-17T06:48:57.243168",
        "meta_mean_motion": 14.34139383,
        "meta_eccentricity": 0.00216954,
        "meta_inclination": 74.0321,
        "meta_ra_of_asc_node": 303.7438,
        "meta_arg_of_pericenter": 22.9527,
        "meta_mean_anomaly": 337.2589,
        "meta_ephemeris_type": 0,
        "meta_classification_type": "U",
        "meta_norad_cat_id": 35959,
        "meta_element_set_no": 999,
        "meta_rev_at_epoch": 84993,
        "meta_bstar": 0.00011197814,
        "meta_mean_motion_dot": 2.88e-06,
        "meta_mean_motion_ddot": 0,
        "tle_line1": "1 35959U 93036AUZ 25351.28399587  .00000288  00000+0  11198-3 0  9999",
        "tle_line2": "2 35959  74.0321 303.7438 0021695  22.9527 337.2589 14.34139383849937"
      },
      "geometry": {
        "type": "Point",
        "coordinates": [
          136.9631645189737,
          -40.572167737303175
        ]
      }
    },
    {
      "type": "Feature",
      "properties": {
        "norad_id": 35961,
        "name": "COSMOS 2251 DEB",
        "group": "cosmos-2251-debris",
        "lat": -11.651905143167971,
        "lon": -168.1568551672331,
        "alt_km": 983.8810417464138,
        "timestamp": "2025-12-17T19:34:08.434575+00:00",
        "meta_object_name": "COSMOS 2251 DEB",
        "meta_object_id": "1993-036AVB",
        "meta_epoch": "2025-12-17T07:40:10.456608",
        "meta_mean_motion": 14.0541089,
        "meta_eccentricity": 0.01917074,
        "meta_inclination": 73.9246,
        "meta_ra_of_asc_node": 196.1239,
        "meta_arg_of_pericenter": 128.5769,
        "meta_mean_anomaly": 233.2717,
        "meta_ephemeris_type": 0,
        "meta_classification_type": "U",
        "meta_norad_cat_id": 35961,
        "meta_element_set_no": 999,
        "meta_rev_at_epoch": 62746,
        "meta_bstar": 0.0011473118,
        "meta_mean_motion_dot": 2.172e-05,
        "meta_mean_motion_ddot": 0,
        "tle_line1": "1 35961U 93036AVB 25351.31956547  .00002172  00000+0  11473-2 0  9990",
        "tle_line2": "2 35961  73.9246 196.1239 0191707 128.5769 233.2717 14.05410890627463"
      },
      "geometry": {
        "type": "Point",
        "coordinates": [
          -168.1568551672331,
          -11.651905143167971
        ]
      }
    },
    {
      "type": "Feature",
      "properties": {
        "norad_id": 35979,
        "name": "COSMOS 2251 DEB",
        "group": "cosmos-2251-debris",
        "lat": 59.03914435701003,
        "lon": -102.99155347098092,
        "alt_km": 621.5482789006819,
        "timestamp": "2025-12-17T19:34:08.434585+00:00",
        "meta_object_name": "COSMOS 2251 DEB",
        "meta_object_id": "1993-036AVV",
        "meta_epoch": "2025-12-14T22:58:43.931424",
        "meta_mean_motion": 14.74677572,
        "meta_eccentricity": 0.0058977,
        "meta_inclination": 74.0101,
        "meta_ra_of_asc_node": 234.0448,
        "meta_arg_of_pericenter": 5.7065,
        "meta_mean_anomaly": 10.8143,
        "meta_ephemeris_type": 0,
        "meta_classification_type": "U",
        "meta_norad_cat_id": 35979,
        "meta_element_set_no": 999,
        "meta_rev_at_epoch": 88666,
        "meta_bstar": 0.00057820557,
        "meta_mean_motion_dot": 3.938e-05,
        "meta_mean_motion_ddot": 0,
        "tle_line1": "1 35979U 93036AVV 25348.95745291  .00003938  00000+0  57821-3 0  9996",
        "tle_line2": "2 35979  74.0101 234.0448 0058977   5.7065  10.8143 14.74677572886663"
      },
      "geometry": {
        "type": "Point",
        "coordinates": [
          -102.99155347098092,
          59.03914435701003
        ]
      }
    },
    {
      "type": "Feature",
      "properties": {
        "norad_id": 35980,
        "name": "COSMOS 2251 DEB",
        "group": "cosmos-2251-debris",
        "lat": 20.496821773044086,
        "lon": 119.12839400766133,
        "alt_km": 721.6887825103358,
        "timestamp": "2025-12-17T19:34:08.434595+00:00",
        "meta_object_name": "COSMOS 2251 DEB",
        "meta_object_id": "1993-036AVW",
        "meta_epoch": "2025-12-15T01:39:40.666752",
        "meta_mean_motion": 14.5933919,
        "meta_eccentricity": 0.00539648,
        "meta_inclination": 73.9111,
        "meta_ra_of_asc_node": 118.2073,
        "meta_arg_of_pericenter": 252.458,
        "meta_mean_anomaly": 107.0684,
        "meta_ephemeris_type": 0,
        "meta_classification_type": "U",
        "meta_norad_cat_id": 35980,
        "meta_element_set_no": 999,
        "meta_rev_at_epoch": 61520,
        "meta_bstar": 0.00098659578,
        "meta_mean_motion_dot": 4.733e-05,
        "meta_mean_motion_ddot": 0,
        "tle_line1": "1 35980U 93036AVW 25349.06922068  .00004733  00000+0  98660-3 0  9990",
        "tle_line2": "2 35980  73.9111 118.2073 0053964 252.4580 107.0684 14.59339190615208"
      },
      "geometry": {
        "type": "Point",
        "coordinates": [
          119.12839400766133,
          20.496821773044086
        ]
      }
    },
    {
      "type": "Feature",
      "properties": {
        "norad_id": 35982,
        "name": "COSMOS 2251 DEB",
        "group": "cosmos-2251-debris",
        "lat": 6.602128353814958,
        "lon": -20.890855875187697,
        "alt_km": 648.6948145868892,
        "timestamp": "2025-12-17T19:34:08.434605+00:00",
        "meta_object_name": "COSMOS 2251 DEB",
        "meta_object_id": "1993-036AVY",
        "meta_epoch": "2025-12-17T06:24:24.989760",
        "meta_mean_motion": 14.6277675,
        "meta_eccentricity": 0.00642738,
        "meta_inclination": 74.058,
        "meta_ra_of_asc_node": 338.2626,
        "meta_arg_of_pericenter": 43.2223,
        "meta_mean_anomaly": 317.3962,
        "meta_ephemeris_type": 0,
        "meta_classification_type": "U",
        "meta_norad_cat_id": 35982,
        "meta_element_set_no": 999,
        "meta_rev_at_epoch": 86232,
        "meta_bstar": 0.00047036751,
        "meta_mean_motion_dot": 2.441e-05,
        "meta_mean_motion_ddot": 0,
        "tle_line1": "1 35982U 93036AVY 25351.26695590  .00002441  00000+0  47037-3 0  9990",
        "tle_line2": "2 35982  74.0580 338.2626 0064273  43.2223 317.3962 14.62776750862328"
      },
      "geometry": {
        "type": "Point",
        "coordinates": [
          -20.890855875187697,
          6.602128353814958
        ]
      }
    },
    {
      "type": "Feature",
      "properties": {
        "norad_id": 35987,
        "name": "COSMOS 2251 DEB",
        "group": "cosmos-2251-debris",
        "lat": 1.6508744584344197,
        "lon": -42.32880429632327,
        "alt_km": 744.4405298246702,
        "timestamp": "2025-12-17T19:34:08.434615+00:00",
        "meta_object_name": "COSMOS 2251 DEB",
        "meta_object_id": "1993-036AWD",
        "meta_epoch": "2025-12-14T05:02:56.141664",
        "meta_mean_motion": 14.43139491,
        "meta_eccentricity": 0.00459797,
        "meta_inclination": 73.9997,
        "meta_ra_of_asc_node": 323.9049,
        "meta_arg_of_pericenter": 89.0828,
        "meta_mean_anomaly": 271.5596,
        "meta_ephemeris_type": 0,
        "meta_classification_type": "U",
        "meta_norad_cat_id": 35987,
        "meta_element_set_no": 999,
        "meta_rev_at_epoch": 61086,
        "meta_bstar": 0.001182332,
        "meta_mean_motion_dot": 3.997e-05,
        "meta_mean_motion_ddot": 0,
        "tle_line1": "1 35987U 93036AWD 25348.21037201  .00003997  00000+0  11823-2 0  9995",
        "tle_line2": "2 35987  73.9997 323.9049 0045979  89.0828 271.5596 14.43139491610862"
      },
      "geometry": {
        "type": "Point",
        "coordinates": [
          -42.32880429632327,
          1.6508744584344197
        ]
      }
    },
    {
      "type": "Feature",
      "properties": {
        "norad_id": 35989,
        "name": "COSMOS 2251 DEB",
        "group": "cosmos-2251-debris",
        "lat": -59.16911122343859,
        "lon": -114.15564401146996,
        "alt_km": 766.4868658447795,
        "timestamp": "2025-12-17T19:34:08.434625+00:00",
        "meta_object_name": "COSMOS 2251 DEB",
        "meta_object_id": "1993-036AWF",
        "meta_epoch": "2025-12-15T12:43:44.525280",
        "meta_mean_motion": 14.3710632,
        "meta_eccentricity": 0.00221302,
        "meta_inclination": 74.0379,
        "meta_ra_of_asc_node": 278.7,
        "meta_arg_of_pericenter": 359.7916,
        "meta_mean_anomaly": 0.3224,
        "meta_ephemeris_type": 0,
        "meta_classification_type": "U",
        "meta_norad_cat_id": 35989,
        "meta_element_set_no": 999,
        "meta_rev_at_epoch": 87219,
        "meta_bstar": 0.00023403924,
        "meta_mean_motion_dot": 6.71e-06,
        "meta_mean_motion_ddot": 0,
        "tle_line1": "1 35989U 93036AWF 25349.53037645  .00000671  00000+0  23404-3 0  9990",
        "tle_line2": "2 35989  74.0379 278.7000 0022130 359.7916   0.3224 14.37106320872193"
      },
      "geometry": {
        "type": "Point",
        "coordinates": [
          -114.15564401146996,
          -59.16911122343859
        ]
      }
    }
  ]
}